[{"OBJECT_NAME":"ONEWEB-0559","OBJECT_ID":"2023-043Q","EPOCH":"2026-03-09T23:12:54.396864","MEAN_MOTION":13.21823633,"ECCENTRICITY":0.00018086,"INCLINATION":87.9163,"RA_OF_ASC_NODE":263.7581,"ARG_OF_PERICENTER":99.2943,"MEAN_ANOMALY":260.8395,"EPHEMERIS_TYPE":0,"CLASSIFICATION_TYPE":"U","NORAD_CAT_ID":56060,"ELEMENT_SET_NO":999,"REV_AT_EPOCH":14514,"BSTAR":0.00011839976,"MEAN_MOTION_DOT":6.2e-7,"MEAN_MOTION_DDOT":0},{"OBJECT_NAME":"DELTA 1 DEB","OBJECT_ID":"1975-052CA","EPOCH":"2026-03-09T17:21:32.003712","MEAN_MOTION":13.30764393,"ECCENTRICITY":0.00924461,"INCLINATION":99.7271,"RA_OF_ASC_NODE":352.3945,"ARG_OF_PERICENTER":160.2006,"MEAN_ANOMALY":268.1591,"EPHEMERIS_TYPE":0,"CLASSIFICATION_TYPE":"U","NORAD_CAT_ID":21356,"ELEMENT_SET_NO":999,"REV_AT_EPOCH":68897,"BSTAR":0.00032842804,"MEAN_MOTION_DOT":1.18e-6,"MEAN_MOTION_DDOT":0}]
